[
  {
    "OBJECT_NAME": "STARLINK-32749",
    "OBJECT_ID": "25003X",
    "EPOCH": "2025-11-11T05:02:23.549856",
    "MEAN_MOTION": 15.27651688,
    "ECCENTRICITY": 0.0001587,
    "INCLINATION": 43.0007,
    "RA_OF_ASC_NODE": 237.9029,
    "ARG_OF_PERICENTER": 254.4624,
    "MEAN_ANOMALY": 105.6052,
    "EPHEMERIS_TYPE": 0,
    "CLASSIFICATION_TYPE": "U",
    "NORAD_CAT_ID": 62508,
    "ELEMENT_SET_NO": 999,
    "REV_AT_EPOCH": 4843,
    "BSTAR": 0.002238,
    "MEAN_MOTION_DOT": 0.00061979,
    "MEAN_MOTION_DDOT": 0.0,
    "TLE_LINE1": "1 62508U 25003X   25315.20999479  .00061979  00000+0  22380-2 0  9994",
    "TLE_LINE2": "2 62508  43.0007 237.9029 0001587 254.4624 105.6052 15.27651688 48434",
    "COMMENT": "Grouped by shell and plane from TLE"
  },
  {
    "OBJECT_NAME": "STARLINK-32744",
    "OBJECT_ID": "25003Y",
    "EPOCH": "2025-11-11T04:20:03.081408",
    "MEAN_MOTION": 15.27640948,
    "ECCENTRICITY": 8.35e-05,
    "INCLINATION": 43.0012,
    "RA_OF_ASC_NODE": 238.5554,
    "ARG_OF_PERICENTER": 280.4017,
    "MEAN_ANOMALY": 79.674,
    "EPHEMERIS_TYPE": 0,
    "CLASSIFICATION_TYPE": "U",
    "NORAD_CAT_ID": 62509,
    "ELEMENT_SET_NO": 999,
    "REV_AT_EPOCH": 4842,
    "BSTAR": 0.0015599,
    "MEAN_MOTION_DOT": 0.00042993,
    "MEAN_MOTION_DDOT": 0.0,
    "TLE_LINE1": "1 62509U 25003Y   25315.18059122  .00042993  00000+0  15599-2 0  9993",
    "TLE_LINE2": "2 62509  43.0012 238.5554 0000835 280.4017  79.6740 15.27640948 48421",
    "COMMENT": "Grouped by shell and plane from TLE"
  },
  {
    "OBJECT_NAME": "STARLINK-32701",
    "OBJECT_ID": "25003Z",
    "EPOCH": "2025-11-11T03:48:35.720064",
    "MEAN_MOTION": 15.27602687,
    "ECCENTRICITY": 0.0002147,
    "INCLINATION": 42.9987,
    "RA_OF_ASC_NODE": 238.383,
    "ARG_OF_PERICENTER": 271.8418,
    "MEAN_ANOMALY": 88.2188,
    "EPHEMERIS_TYPE": 0,
    "CLASSIFICATION_TYPE": "U",
    "NORAD_CAT_ID": 62510,
    "ELEMENT_SET_NO": 999,
    "REV_AT_EPOCH": 4842,
    "BSTAR": 0.0012739000000000001,
    "MEAN_MOTION_DOT": 0.00034984,
    "MEAN_MOTION_DDOT": 0.0,
    "TLE_LINE1": "1 62510U 25003Z   25315.15874676  .00034984  00000+0  12739-2 0  9995",
    "TLE_LINE2": "2 62510  42.9987 238.3830 0002147 271.8418  88.2188 15.27602687 48424",
    "COMMENT": "Grouped by shell and plane from TLE"
  },
  {
    "OBJECT_NAME": "STARLINK-32543",
    "OBJECT_ID": "25063B",
    "EPOCH": "2025-11-11T08:00:03.000384",
    "MEAN_MOTION": 15.32054007,
    "ECCENTRICITY": 0.0001175,
    "INCLINATION": 53.1586,
    "RA_OF_ASC_NODE": 239.3643,
    "ARG_OF_PERICENTER": 106.6612,
    "MEAN_ANOMALY": 85.6881,
    "EPHEMERIS_TYPE": 0,
    "CLASSIFICATION_TYPE": "U",
    "NORAD_CAT_ID": 63364,
    "ELEMENT_SET_NO": 999,
    "REV_AT_EPOCH": 591,
    "BSTAR": 0.0,
    "MEAN_MOTION_DOT": -0.01307582,
    "MEAN_MOTION_DDOT": 0.0,
    "TLE_LINE1": "1 63364U 25063B   25315.33336806 -.01307582  00000+0 -45595-1 0  9992",
    "TLE_LINE2": "2 63364  53.1586 239.3643 0001175 106.6612  85.6881 15.32054007  5916",
    "COMMENT": "Grouped by shell and plane from TLE"
  },
  {
    "OBJECT_NAME": "STARLINK-33578",
    "OBJECT_ID": "25063F",
    "EPOCH": "2025-11-11T08:00:03.000384",
    "MEAN_MOTION": 15.34525595,
    "ECCENTRICITY": 0.0001117,
    "INCLINATION": 53.1594,
    "RA_OF_ASC_NODE": 239.7207,
    "ARG_OF_PERICENTER": 87.8266,
    "MEAN_ANOMALY": 278.8216,
    "EPHEMERIS_TYPE": 0,
    "CLASSIFICATION_TYPE": "U",
    "NORAD_CAT_ID": 63368,
    "ELEMENT_SET_NO": 999,
    "REV_AT_EPOCH": 586,
    "BSTAR": 0.0,
    "MEAN_MOTION_DOT": -0.01249734,
    "MEAN_MOTION_DDOT": 0.0,
    "TLE_LINE1": "1 63368U 25063F   25315.33336806 -.01249734  00000+0 -40124-1 0  9993",
    "TLE_LINE2": "2 63368  53.1594 239.7207 0001117  87.8266 278.8216 15.34525595  5869",
    "COMMENT": "Grouped by shell and plane from TLE"
  },
  {
    "OBJECT_NAME": "STARLINK-34331",
    "OBJECT_ID": "25117B",
    "EPOCH": "2025-11-11T03:32:27.667680",
    "MEAN_MOTION": 15.30220777,
    "ECCENTRICITY": 0.0001336,
    "INCLINATION": 53.1586,
    "RA_OF_ASC_NODE": 230.4182,
    "ARG_OF_PERICENTER": 88.8746,
    "MEAN_ANOMALY": 271.2408,
    "EPHEMERIS_TYPE": 0,
    "CLASSIFICATION_TYPE": "U",
    "NORAD_CAT_ID": 64204,
    "ELEMENT_SET_NO": 999,
    "REV_AT_EPOCH": 2637,
    "BSTAR": 0.0012018,
    "MEAN_MOTION_DOT": 0.00035427,
    "MEAN_MOTION_DDOT": 0.0,
    "TLE_LINE1": "1 64204U 25117B   25315.14754245  .00035427  00000+0  12018-2 0  9994",
    "TLE_LINE2": "2 64204  53.1586 230.4182 0001336  88.8746 271.2408 15.30220777 26376",
    "COMMENT": "Grouped by shell and plane from TLE"
  },
  {
    "OBJECT_NAME": "STARLINK-34251",
    "OBJECT_ID": "25117C",
    "EPOCH": "2025-11-11T03:37:00.918912",
    "MEAN_MOTION": 15.30225933,
    "ECCENTRICITY": 0.0001077,
    "INCLINATION": 53.1582,
    "RA_OF_ASC_NODE": 230.4351,
    "ARG_OF_PERICENTER": 90.1126,
    "MEAN_ANOMALY": 269.9998,
    "EPHEMERIS_TYPE": 0,
    "CLASSIFICATION_TYPE": "U",
    "NORAD_CAT_ID": 64205,
    "ELEMENT_SET_NO": 999,
    "REV_AT_EPOCH": 2637,
    "BSTAR": 0.0011897000000000001,
    "MEAN_MOTION_DOT": 0.00035071,
    "MEAN_MOTION_DDOT": 0.0,
    "TLE_LINE1": "1 64205U 25117C   25315.15070508  .00035071  00000+0  11897-2 0  9998",
    "TLE_LINE2": "2 64205  53.1582 230.4351 0001077  90.1126 269.9998 15.30225933 26378",
    "COMMENT": "Grouped by shell and plane from TLE"
  },
  {
    "OBJECT_NAME": "STARLINK-34311",
    "OBJECT_ID": "25117D",
    "EPOCH": "2025-11-11T03:41:34.785312",
    "MEAN_MOTION": 15.3021591,
    "ECCENTRICITY": 0.0001034,
    "INCLINATION": 53.1598,
    "RA_OF_ASC_NODE": 230.4574,
    "ARG_OF_PERICENTER": 100.1827,
    "MEAN_ANOMALY": 259.929,
    "EPHEMERIS_TYPE": 0,
    "CLASSIFICATION_TYPE": "U",
    "NORAD_CAT_ID": 64206,
    "ELEMENT_SET_NO": 999,
    "REV_AT_EPOCH": 2640,
    "BSTAR": 0.00074019,
    "MEAN_MOTION_DOT": 0.00021638,
    "MEAN_MOTION_DDOT": 0.0,
    "TLE_LINE1": "1 64206U 25117D   25315.15387483  .00021638  00000+0  74019-3 0  9992",
    "TLE_LINE2": "2 64206  53.1598 230.4574 0001034 100.1827 259.9290 15.30215910 26408",
    "COMMENT": "Grouped by shell and plane from TLE"
  },
  {
    "OBJECT_NAME": "STARLINK-34332",
    "OBJECT_ID": "25117L",
    "EPOCH": "2025-11-11T03:47:39.563520",
    "MEAN_MOTION": 15.30219536,
    "ECCENTRICITY": 0.0001479,
    "INCLINATION": 53.1601,
    "RA_OF_ASC_NODE": 230.4827,
    "ARG_OF_PERICENTER": 76.5695,
    "MEAN_ANOMALY": 283.5471,
    "EPHEMERIS_TYPE": 0,
    "CLASSIFICATION_TYPE": "U",
    "NORAD_CAT_ID": 64213,
    "ELEMENT_SET_NO": 999,
    "REV_AT_EPOCH": 2640,
    "BSTAR": 0.0013278,
    "MEAN_MOTION_DOT": 0.00039199,
    "MEAN_MOTION_DDOT": 0.0,
    "TLE_LINE1": "1 64213U 25117L   25315.15809680  .00039199  00000+0  13278-2 0  9998",
    "TLE_LINE2": "2 64213  53.1601 230.4827 0001479  76.5695 283.5471 15.30219536 26406",
    "COMMENT": "Grouped by shell and plane from TLE"
  },
  {
    "OBJECT_NAME": "STARLINK-34283",
    "OBJECT_ID": "25117M",
    "EPOCH": "2025-11-11T00:46:59.276064",
    "MEAN_MOTION": 15.30186409,
    "ECCENTRICITY": 0.0001559,
    "INCLINATION": 53.1604,
    "RA_OF_ASC_NODE": 230.4107,
    "ARG_OF_PERICENTER": 90.1543,
    "MEAN_ANOMALY": 269.9636,
    "EPHEMERIS_TYPE": 0,
    "CLASSIFICATION_TYPE": "U",
    "NORAD_CAT_ID": 64214,
    "ELEMENT_SET_NO": 999,
    "REV_AT_EPOCH": 2636,
    "BSTAR": 0.0011614,
    "MEAN_MOTION_DOT": 0.00034183,
    "MEAN_MOTION_DDOT": 0.0,
    "TLE_LINE1": "1 64214U 25117M   25315.03263051  .00034183  00000+0  11614-2 0  9992",
    "TLE_LINE2": "2 64214  53.1604 230.4107 0001559  90.1543 269.9636 15.30186409 26362",
    "COMMENT": "Grouped by shell and plane from TLE"
  },
  {
    "OBJECT_NAME": "STARLINK-34349",
    "OBJECT_ID": "25117N",
    "EPOCH": "2025-11-11T01:40:10.106688",
    "MEAN_MOTION": 15.30178886,
    "ECCENTRICITY": 0.0001468,
    "INCLINATION": 53.1575,
    "RA_OF_ASC_NODE": 230.6378,
    "ARG_OF_PERICENTER": 86.8916,
    "MEAN_ANOMALY": 273.2253,
    "EPHEMERIS_TYPE": 0,
    "CLASSIFICATION_TYPE": "U",
    "NORAD_CAT_ID": 64215,
    "ELEMENT_SET_NO": 999,
    "REV_AT_EPOCH": 2636,
    "BSTAR": 0.00044202000000000005,
    "MEAN_MOTION_DOT": 0.00012746,
    "MEAN_MOTION_DDOT": 0.0,
    "TLE_LINE1": "1 64215U 25117N   25315.06956142  .00012746  00000+0  44202-3 0  9997",
    "TLE_LINE2": "2 64215  53.1575 230.6378 0001468  86.8916 273.2253 15.30178886 26360",
    "COMMENT": "Grouped by shell and plane from TLE"
  },
  {
    "OBJECT_NAME": "STARLINK-34320",
    "OBJECT_ID": "25117Q",
    "EPOCH": "2025-11-11T02:10:34.206816",
    "MEAN_MOTION": 15.30205867,
    "ECCENTRICITY": 0.0001515,
    "INCLINATION": 53.1598,
    "RA_OF_ASC_NODE": 230.7751,
    "ARG_OF_PERICENTER": 76.8532,
    "MEAN_ANOMALY": 283.2638,
    "EPHEMERIS_TYPE": 0,
    "CLASSIFICATION_TYPE": "U",
    "NORAD_CAT_ID": 64217,
    "ELEMENT_SET_NO": 999,
    "REV_AT_EPOCH": 2636,
    "BSTAR": 0.00070737,
    "MEAN_MOTION_DOT": 0.00020653,
    "MEAN_MOTION_DDOT": 0.0,
    "TLE_LINE1": "1 64217U 25117Q   25315.09067369  .00020653  00000+0  70737-3 0  9994",
    "TLE_LINE2": "2 64217  53.1598 230.7751 0001515  76.8532 283.2638 15.30205867 26367",
    "COMMENT": "Grouped by shell and plane from TLE"
  },
  {
    "OBJECT_NAME": "STARLINK-34326",
    "OBJECT_ID": "25117U",
    "EPOCH": "2025-11-11T01:34:05.537568",
    "MEAN_MOTION": 15.30221746,
    "ECCENTRICITY": 0.0001302,
    "INCLINATION": 53.1562,
    "RA_OF_ASC_NODE": 230.6128,
    "ARG_OF_PERICENTER": 84.6373,
    "MEAN_ANOMALY": 275.4777,
    "EPHEMERIS_TYPE": 0,
    "CLASSIFICATION_TYPE": "U",
    "NORAD_CAT_ID": 64221,
    "ELEMENT_SET_NO": 999,
    "REV_AT_EPOCH": 2639,
    "BSTAR": 0.00061861,
    "MEAN_MOTION_DOT": 0.00018019,
    "MEAN_MOTION_DDOT": 0.0,
    "TLE_LINE1": "1 64221U 25117U   25315.06534187  .00018019  00000+0  61861-3 0  9994",
    "TLE_LINE2": "2 64221  53.1562 230.6128 0001302  84.6373 275.4777 15.30221746 26398",
    "COMMENT": "Grouped by shell and plane from TLE"
  }
]